SL-4 R/B                
1 39679U 14021B   26002.55284853  .00018425  00000+0  42852-3 0  9995
2 39679  51.6093 299.4080 0100164 221.4968 137.8379 15.37224019646093
ALOS-2                  
1 39766U 14029A   26002.84449938  .00007417  00000+0  99905-3 0  9999
2 39766  97.9221 102.3904 0001337  96.7784 263.3579 14.79470555627138
YAOGAN-29               
1 41038U 15069A   26002.87235700  .00000267  00000+0  39634-4 0  9992
2 41038  98.0205  31.1106 0001508 148.4235 211.7069 14.82908156546123
ASTRO-H (HITOMI)        
1 41337U 16012A   26002.52054478  .00005824  00000+0  34841-3 0  9994
2 41337  31.0008  63.3877 0009599  27.6364 332.4783 15.09515369542225
HXMT (HUIYAN)           
1 42758U 17034A   26002.54004167  .00010228  00000+0  51959-3 0  9992
2 42758  43.0156  24.1826 0032249 179.0039 181.0878 15.16536228472497
CZ-2C R/B               
1 43521U 18054D   26002.44289774  .00172949  00000+0  90664-3 0  9997
2 43521  35.1338  40.0224 0012450 349.8056  10.2425 15.79181139418326
SAOCOM 1A               
1 43641U 18076A   26002.60019394 -.00000224  00000+0 -21537-4 0  9993
2 43641  97.8843 191.7182 0001329  83.2580 276.8784 14.82157569391574
H-2A R/B                
1 43682U 18084L   26002.84008081  .00032598  00000+0  85382-3 0  9998
2 43682  98.8758 206.3072 0026062 252.2864 107.5531 15.38300835395640
SAOCOM 1B               
1 46265U 20059A   26002.83395297  .00001297  00000+0  16944-3 0  9990
2 46265  97.8840 191.0483 0001471  84.0051 276.1330 14.82168326288997
CSS (TIANHE)            
1 48274U 21035A   26002.71819259  .00030283  00000+0  36461-3 0  9996
2 48274  41.4660 249.2667 0010311 206.2606 153.7711 15.60092745267304
COSMOS 2550             
1 48865U 21056A   26002.78809697 -.00000166  00000+0  77585-6 0  9990
2 48865  67.1441 240.2690 0008340 269.2800  90.7399 15.33828757253355
CZ-2C R/B               
1 52794U 22058K   26002.19157010  .00040777  00000+0  69708-3 0  9995
2 52794  50.1924 299.1650 0043900 282.3337  77.2719 15.49737381199804
